{
  "type": "FeatureCollection",
  "features": [
    {
      "type": "Feature",
      "properties": {
        "norad_id": 30118,
        "name": "FENGYUN 1C DEB",
        "group": "fengyun-1c-debris",
        "lat": 50.97785552618281,
        "lon": 172.03142688931928,
        "alt_km": 824.5723778349884,
        "timestamp": "2025-12-02T23:34:15.790383+00:00",
        "meta_object_name": "FENGYUN 1C DEB",
        "meta_object_id": "1999-025RX",
        "meta_epoch": "2025-12-02T11:43:58.445760",
        "meta_mean_motion": 14.05113781,
        "meta_eccentricity": 0.0085411,
        "meta_inclination": 98.8032,
        "meta_ra_of_asc_node": 340.5292,
        "meta_arg_of_pericenter": 88.2294,
        "meta_mean_anomaly": 65.522,
        "meta_ephemeris_type": 0,
        "meta_classification_type": "U",
        "meta_norad_cat_id": 30118,
        "meta_element_set_no": 999,
        "meta_rev_at_epoch": 96787,
        "meta_bstar": 0.00022001,
        "meta_mean_motion_dot": 3.25e-06,
        "meta_mean_motion_ddot": 0,
        "tle_line1": "1 30118U 99025RX  25336.48887090  .00000325  00000+0  22001-3 0  9998",
        "tle_line2": "2 30118  98.8032 340.5292 0085411  88.2294  65.5220 14.05113781967870"
      },
      "geometry": {
        "type": "Point",
        "coordinates": [
          172.03142688931928,
          50.97785552618281
        ]
      }
    },
    {
      "type": "Feature",
      "properties": {
        "norad_id": 30119,
        "name": "FENGYUN 1C DEB",
        "group": "fengyun-1c-debris",
        "lat": -6.300159427280905,
        "lon": 151.06264505302732,
        "alt_km": 889.1316590734104,
        "timestamp": "2025-12-02T23:34:15.790393+00:00",
        "meta_object_name": "FENGYUN 1C DEB",
        "meta_object_id": "1999-025RY",
        "meta_epoch": "2025-12-02T11:35:40.092288",
        "meta_mean_motion": 14.22102576,
        "meta_eccentricity": 0.0131788,
        "meta_inclination": 97.9195,
        "meta_ra_of_asc_node": 331.4947,
        "meta_arg_of_pericenter": 323.3347,
        "meta_mean_anomaly": 190.6528,
        "meta_ephemeris_type": 0,
        "meta_classification_type": "U",
        "meta_norad_cat_id": 30119,
        "meta_element_set_no": 999,
        "meta_rev_at_epoch": 97034,
        "meta_bstar": 0.0022909,
        "meta_mean_motion_dot": 5.506e-05,
        "meta_mean_motion_ddot": 0,
        "tle_line1": "1 30119U 99025RY  25336.48310292  .00005506  00000+0  22909-2 0  9996",
        "tle_line2": "2 30119  97.9195 331.4947 0131788 323.3347 190.6528 14.22102576970344"
      },
      "geometry": {
        "type": "Point",
        "coordinates": [
          151.06264505302732,
          -6.300159427280905
        ]
      }
    },
    {
      "type": "Feature",
      "properties": {
        "norad_id": 30120,
        "name": "FENGYUN 1C DEB",
        "group": "fengyun-1c-debris",
        "lat": -39.37609326269186,
        "lon": 66.10242611338315,
        "alt_km": 799.151546387091,
        "timestamp": "2025-12-02T23:34:15.790402+00:00",
        "meta_object_name": "FENGYUN 1C DEB",
        "meta_object_id": "1999-025RZ",
        "meta_epoch": "2025-12-01T18:04:57.501120",
        "meta_mean_motion": 14.27429728,
        "meta_eccentricity": 0.00630851,
        "meta_inclination": 98.8526,
        "meta_ra_of_asc_node": 57.5099,
        "meta_arg_of_pericenter": 242.9903,
        "meta_mean_anomaly": 246.0918,
        "meta_ephemeris_type": 0,
        "meta_classification_type": "U",
        "meta_norad_cat_id": 30120,
        "meta_element_set_no": 999,
        "meta_rev_at_epoch": 97214,
        "meta_bstar": 0.0020058862,
        "meta_mean_motion_dot": 4.983e-05,
        "meta_mean_motion_ddot": 0,
        "tle_line1": "1 30120U 99025RZ  25335.75344330  .00004983  00000+0  20059-2 0  9999",
        "tle_line2": "2 30120  98.8526  57.5099 0063085 242.9903 246.0918 14.27429728972141"
      },
      "geometry": {
        "type": "Point",
        "coordinates": [
          66.10242611338315,
          -39.37609326269186
        ]
      }
    },
    {
      "type": "Feature",
      "properties": {
        "norad_id": 30121,
        "name": "FENGYUN 1C DEB",
        "group": "fengyun-1c-debris",
        "lat": 40.731444800129495,
        "lon": -174.94872202100498,
        "alt_km": 741.6927805217256,
        "timestamp": "2025-12-02T23:34:15.790412+00:00",
        "meta_object_name": "FENGYUN 1C DEB",
        "meta_object_id": "1999-025SA",
        "meta_epoch": "2025-12-02T01:20:52.427040",
        "meta_mean_motion": 14.39768564,
        "meta_eccentricity": 0.00317853,
        "meta_inclination": 102.1662,
        "meta_ra_of_asc_node": 353.0358,
        "meta_arg_of_pericenter": 192.0547,
        "meta_mean_anomaly": 189.239,
        "meta_ephemeris_type": 0,
        "meta_classification_type": "U",
        "meta_norad_cat_id": 30121,
        "meta_element_set_no": 999,
        "meta_rev_at_epoch": 97386,
        "meta_bstar": 0.0025071532,
        "meta_mean_motion_dot": 7.842e-05,
        "meta_mean_motion_ddot": 0,
        "tle_line1": "1 30121U 99025SA  25336.05616235  .00007842  00000+0  25072-2 0  9997",
        "tle_line2": "2 30121 102.1662 353.0358 0031785 192.0547 189.2390 14.39768564973864"
      },
      "geometry": {
        "type": "Point",
        "coordinates": [
          -174.94872202100498,
          40.731444800129495
        ]
      }
    },
    {
      "type": "Feature",
      "properties": {
        "norad_id": 30123,
        "name": "FENGYUN 1C DEB",
        "group": "fengyun-1c-debris",
        "lat": 47.38830536967694,
        "lon": -88.11498030986043,
        "alt_km": 732.2211996555634,
        "timestamp": "2025-12-02T23:34:15.790423+00:00",
        "meta_object_name": "FENGYUN 1C DEB",
        "meta_object_id": "1999-025SC",
        "meta_epoch": "2025-12-01T13:39:45.564768",
        "meta_mean_motion": 14.25832445,
        "meta_eccentricity": 0.02302366,
        "meta_inclination": 96.9246,
        "meta_ra_of_asc_node": 278.3576,
        "meta_arg_of_pericenter": 118.6813,
        "meta_mean_anomaly": 243.7729,
        "meta_ephemeris_type": 0,
        "meta_classification_type": "U",
        "meta_norad_cat_id": 30123,
        "meta_element_set_no": 999,
        "meta_rev_at_epoch": 97088,
        "meta_bstar": 0.0010500821,
        "meta_mean_motion_dot": 3.27e-05,
        "meta_mean_motion_ddot": 0,
        "tle_line1": "1 30123U 99025SC  25335.56927737  .00003270  00000+0  10501-2 0  9998",
        "tle_line2": "2 30123  96.9246 278.3576 0230236 118.6813 243.7729 14.25832445970883"
      },
      "geometry": {
        "type": "Point",
        "coordinates": [
          -88.11498030986043,
          47.38830536967694
        ]
      }
    },
    {
      "type": "Feature",
      "properties": {
        "norad_id": 30124,
        "name": "FENGYUN 1C DEB",
        "group": "fengyun-1c-debris",
        "lat": 20.859497260123064,
        "lon": 27.118955491399234,
        "alt_km": 882.4396326445067,
        "timestamp": "2025-12-02T23:34:15.790433+00:00",
        "meta_object_name": "FENGYUN 1C DEB",
        "meta_object_id": "1999-025SD",
        "meta_epoch": "2025-12-02T09:57:14.495904",
        "meta_mean_motion": 14.14166996,
        "meta_eccentricity": 0.0143799,
        "meta_inclination": 99.1332,
        "meta_ra_of_asc_node": 30.0535,
        "meta_arg_of_pericenter": 134.7443,
        "meta_mean_anomaly": 241.1195,
        "meta_ephemeris_type": 0,
        "meta_classification_type": "U",
        "meta_norad_cat_id": 30124,
        "meta_element_set_no": 999,
        "meta_rev_at_epoch": 96769,
        "meta_bstar": 0.0011946,
        "meta_mean_motion_dot": 2.469e-05,
        "meta_mean_motion_ddot": 0,
        "tle_line1": "1 30124U 99025SD  25336.41475111  .00002469  00000+0  11946-2 0  9991",
        "tle_line2": "2 30124  99.1332  30.0535 0143799 134.7443 241.1195 14.14166996967691"
      },
      "geometry": {
        "type": "Point",
        "coordinates": [
          27.118955491399234,
          20.859497260123064
        ]
      }
    },
    {
      "type": "Feature",
      "properties": {
        "norad_id": 30125,
        "name": "FENGYUN 1C DEB",
        "group": "fengyun-1c-debris",
        "lat": -58.69224399444471,
        "lon": -118.76861642488164,
        "alt_km": 986.6521130476949,
        "timestamp": "2025-12-02T23:34:15.790442+00:00",
        "meta_object_name": "FENGYUN 1C DEB",
        "meta_object_id": "1999-025SE",
        "meta_epoch": "2025-12-02T05:50:54.794400",
        "meta_mean_motion": 14.22562904,
        "meta_eccentricity": 0.0343165,
        "meta_inclination": 98.7244,
        "meta_ra_of_asc_node": 75.1229,
        "meta_arg_of_pericenter": 14.6214,
        "meta_mean_anomaly": 48.4975,
        "meta_ephemeris_type": 0,
        "meta_classification_type": "U",
        "meta_norad_cat_id": 30125,
        "meta_element_set_no": 999,
        "meta_rev_at_epoch": 96772,
        "meta_bstar": 0.00077167,
        "meta_mean_motion_dot": 3.107e-05,
        "meta_mean_motion_ddot": 0,
        "tle_line1": "1 30125U 99025SE  25336.24368975  .00003107  00000+0  77167-3 0  9990",
        "tle_line2": "2 30125  98.7244  75.1229 0343165  14.6214  48.4975 14.22562904967726"
      },
      "geometry": {
        "type": "Point",
        "coordinates": [
          -118.76861642488164,
          -58.69224399444471
        ]
      }
    }
  ]
}